OBJECT_NAME,OBJECT_ID,EPOCH,MEAN_MOTION,ECCENTRICITY,INCLINATION,RA_OF_ASC_NODE,ARG_OF_PERICENTER,MEAN_ANOMALY,EPHEMERIS_TYPE,CLASSIFICATION_TYPE,NORAD_CAT_ID,ELEMENT_SET_NO,REV_AT_EPOCH,BSTAR,MEAN_MOTION_DOT,MEAN_MOTION_DDOT
SL-12 R/B(2),1985-042D,2026-07-07T10:35:56.588352,14.22009761,.0037185,71.1060,194.7231,297.5899,227.1538,0,U,15772,999,13141,.74762E-4,.119E-5,0
SL-14 R/B,1985-069B,2026-07-07T03:52:01.396128,14.86531221,.0019518,82.5269,272.5818,152.4603,207.7652,0,U,15945,999,19058,.3938E-4,.374E-5,0
SL-14 R/B,1986-006B,2026-07-07T07:21:48.606048,14.86964011,.0074941,82.5276,147.1798,235.4072,124.0061,0,U,16496,999,16698,.43484E-4,.435E-5,0
COSMOS 1743,1986-034A,2026-07-07T07:33:14.401728,15.68954343,.0004994,82.5273,307.3026,202.4084,157.6960,0,U,16719,999,19894,.37056E-3,.42788E-3,0
SL-14 R/B,1986-055B,2026-07-07T00:45:59.359392,14.85736494,.0017498,82.5197,14.4725,299.7077,222.5798,0,U,16882,999,13708,.38426E-4,.358E-5,0
SL-14 R/B,1987-024B,2026-07-07T09:58:14.130048,14.86227714,.0017193,82.5291,340.2357,220.5940,139.3996,0,U,17567,999,10591,.41506E-4,.39E-5,0
COSMOS 1833,1987-027A,2026-07-07T03:24:01.279008,14.13063646,.0023679,70.9211,74.9275,21.8605,338.3520,0,U,17589,999,2719,.12295E-3,.182E-5,0
SL-16 R/B,1987-027B,2026-07-06T21:49:05.114208,14.17174521,.0007105,71.0031,25.2686,290.7619,69.2743,0,U,17590,999,3223,-.82117E-4,-.214E-5,0
SL-14 R/B,1987-038B,2026-07-07T09:42:45.620352,14.85457851,.0020558,82.5005,184.0278,126.2292,234.0828,0,U,17912,999,9700,.37525E-4,.349E-5,0
COSMOS 1844,1987-041A,2026-07-07T06:15:12.218976,14.14576284,.0031818,70.8988,141.9654,206.4878,153.4619,0,U,17973,999,2049,.20582E-3,.349E-5,0
SL-14 R/B,1987-055B,2026-07-07T02:11:09.090816,14.85723677,.0020043,82.4977,236.4660,343.0325,17.0218,0,U,18153,999,8766,.32078E-4,.303E-5,0
SL-16 R/B,1988-039B,2026-07-06T23:47:16.980864,14.19632005,.0021073,71.0130,176.2820,162.4747,197.7110,0,U,19120,999,97531,.53881E-4,.66E-6,0
COSMOS 1953,1988-050A,2026-07-06T15:18:29.787264,15.30255230,.0012132,82.5065,38.4148,66.9975,293.2544,0,U,19210,999,5596,.18613E-3,.5491E-4,0
SL-8 R/B,1988-053B,2026-07-07T03:51:40.578048,14.38975547,.0019465,74.0467,252.2397,40.3863,349.0507,0,U,19257,999,99378,.58385E-4,.154E-5,0
COSMOS 1975,1988-093A,2026-07-07T10:27:55.119168,15.29598976,.0012572,82.5199,357.3283,106.5175,253.7447,0,U,19573,999,3770,.15884E-3,.4599E-4,0
SL-14 R/B,1988-093B,2026-07-07T06:27:14.224032,14.85756560,.0020722,82.5319,289.7924,6.8592,21.7589,0,U,19574,999,1877,.35375E-4,.333E-5,0
SL-16 R/B,1988-102B,2026-07-07T04:57:35.241696,14.16169142,.0014728,70.9995,260.0163,197.7374,162.3237,0,U,19650,999,94381,-.7396E-4,-.194E-5,0
INTERCOSMOS 24,1989-080A,2026-07-07T12:09:32.457888,12.59688007,.1187615,82.6047,26.4205,14.7893,348.4971,0,U,20261,999,68188,.13228E-3,.467E-5,0
SL-14 R/B,1989-080C,2026-07-07T03:53:29.545728,12.50577340,.1228439,82.5942,96.4743,271.6759,74.4350,0,U,20262,999,67508,.29616E-4,.99E-6,0
DELTA 1 R/B,1989-089B,2026-07-07T00:20:46.199040,14.50744229,.0070545,97.0634,16.3996,105.2394,255.6618,0,U,20323,999,91303,.76554E-4,.276E-5,0
ARIANE 40 R/B,1990-005H,2026-07-07T03:02:31.795296,14.39938063,.000971,98.2948,245.1219,198.2846,161.7995,0,U,20443,999,90999,.77609E-4,.202E-5,0
DELTA 2 R/B(1),1990-008B,2026-07-07T03:37:52.824576,15.72328797,.0062651,35.6000,101.7768,300.8841,58.5750,0,U,20453,999,94484,.55418E-3,.86839E-3,0
COSMOS 2058,1990-010A,2026-07-07T07:39:36.776160,15.12132791,.0007994,82.4677,289.5017,283.6003,76.4337,0,U,20465,999,96031,.99045E-4,.1736E-4,0
SL-14 R/B,1990-010B,2026-07-07T07:59:53.366784,14.83659728,.0018157,82.5028,155.0249,265.2942,94.6200,0,U,20466,999,94622,.39444E-4,.35E-5,0
